start=new Date('2022-08-23T00:00:00.000Z').valueOf();
sats=[{"MEAN_ELEMENT_THEORY":"SGP4","TLE_LINE2":"2 47861  53.0546 320.8990 0001183  90.4925 269.6200 15.06383851 81053","CLASSIFICATION_TYPE":"U","ARG_OF_PERICENTER":"90.4925","LAUNCH_DATE":"2021-03-14","SEMIMAJOR_AXIS":"6925.398","TLE_LINE1":"1 47861U 21021B   22234.51011973  .00001038  00000-0  88615-4 0  9996","SITE":"AFETR","NORAD_CAT_ID":"47861","BSTAR":"0.00008861500000","DECAY_DATE":null,"MEAN_ANOMALY":"269.6200","TIME_SYSTEM":"UTC","REF_FRAME":"TEME","OBJECT_ID":"2021-021B","EPHEMERIS_TYPE":"0","ECCENTRICITY":"0.00011830","RCS_SIZE":"LARGE","PERIOD":"95.593","OBJECT_NAME":"STARLINK-2280","INCLINATION":"53.0546","EPOCH":"2022-08-22T12:14:34.344672","COUNTRY_CODE":"US","REV_AT_EPOCH":"8105","OBJECT_TYPE":"PAYLOAD","GP_ID":"210775708","MEAN_MOTION":"15.06383851","CENTER_NAME":"EARTH","PERIAPSIS":"546.444","FILE":"3544179","MEAN_MOTION_DOT":"0.00001038","APOAPSIS":"548.082","ELEMENT_SET_NO":"999","RA_OF_ASC_NODE":"320.8990","MEAN_MOTION_DDOT":"0.0000000000000"},{"MEAN_ELEMENT_THEORY":"SGP4","CLASSIFICATION_TYPE":"U","TLE_LINE2":"2 47862  53.0547 315.1149 0001040  85.2801 274.8307 15.06399579 81145","SITE":"AFETR","NORAD_CAT_ID":"47862","ARG_OF_PERICENTER":"85.2801","TLE_LINE1":"1 47862U 21021C   22234.68934699  .00002716  00000-0  20116-3 0  9999","SEMIMAJOR_AXIS":"6925.350","LAUNCH_DATE":"2021-03-14","OBJECT_ID":"2021-021C","REF_FRAME":"TEME","EPHEMERIS_TYPE":"0","DECAY_DATE":null,"MEAN_ANOMALY":"274.8307","BSTAR":"0.00020116000000","TIME_SYSTEM":"UTC","OBJECT_NAME":"STARLINK-2291","RCS_SIZE":"LARGE","ECCENTRICITY":"0.00010400","PERIOD":"95.592","REV_AT_EPOCH":"8114","COUNTRY_CODE":"US","INCLINATION":"53.0547","EPOCH":"2022-08-22T16:32:39.579936","CENTER_NAME":"EARTH","PERIAPSIS":"546.495","FILE":"3544179","GP_ID":"210776460","OBJECT_TYPE":"PAYLOAD","MEAN_MOTION":"15.06399579","RA_OF_ASC_NODE":"315.1149","MEAN_MOTION_DDOT":"0.0000000000000","APOAPSIS":"547.935","ELEMENT_SET_NO":"999","MEAN_MOTION_DOT":"0.00002716"},{"CLASSIFICATION_TYPE":"U","TLE_LINE2":"2 47863  53.0559 325.8997 0001351  91.1214 268.9929 15.06386738 80985","MEAN_ELEMENT_THEORY":"SGP4","TIME_SYSTEM":"UTC","DECAY_DATE":null,"BSTAR":"0.00020650000000","MEAN_ANOMALY":"268.9929","EPHEMERIS_TYPE":"0","OBJECT_ID":"2021-021D","REF_FRAME":"TEME","TLE_LINE1":"1 47863U 21021D   22234.51518861  .00002795  00000-0  20650-3 0  9991","LAUNCH_DATE":"2021-03-14","SEMIMAJOR_AXIS":"6925.389","ARG_OF_PERICENTER":"91.1214","SITE":"AFETR","NORAD_CAT_ID":"47863","EPOCH":"2022-08-22T12:21:52.295904","INCLINATION":"53.0559","REV_AT_EPOCH":"8098","COUNTRY_CODE":"US","PERIOD":"95.593","RCS_SIZE":"LARGE","ECCENTRICITY":"0.00013510","OBJECT_NAME":"STARLINK-2293","ELEMENT_SET_NO":"999","APOAPSIS":"548.190","MEAN_MOTION_DOT":"0.00002795","RA_OF_ASC_NODE":"325.8997","MEAN_MOTION_DDOT":"0.0000000000000","MEAN_MOTION":"15.06386738","GP_ID":"210777210","OBJECT_TYPE":"PAYLOAD","FILE":"3544179","PERIAPSIS":"546.319","CENTER_NAME":"EARTH"},{"MEAN_ELEMENT_THEORY":"SGP4","CLASSIFICATION_TYPE":"U","TLE_LINE2":"2 47864  53.0548 316.3279 0001172  86.3958 273.7165 15.06388651 81088","LAUNCH_DATE":"2021-03-14","SEMIMAJOR_AXIS":"6925.383","TLE_LINE1":"1 47864U 21021E   22234.42765162  .00001962  00000-0  15064-3 0  9998","ARG_OF_PERICENTER":"86.3958","SITE":"AFETR","NORAD_CAT_ID":"47864","TIME_SYSTEM":"UTC","DECAY_DATE":null,"MEAN_ANOMALY":"273.7165","BSTAR":"0.00015064000000","EPHEMERIS_TYPE":"0","REF_FRAME":"TEME","OBJECT_ID":"2021-021E","PERIOD":"95.593","ECCENTRICITY":"0.00011720","RCS_SIZE":"LARGE","OBJECT_NAME":"STARLINK-2304","EPOCH":"2022-08-22T10:15:49.099968","INCLINATION":"53.0548","COUNTRY_CODE":"US","REV_AT_EPOCH":"8108","MEAN_MOTION":"15.06388651","OBJECT_TYPE":"PAYLOAD","GP_ID":"210775958","FILE":"3544179","CENTER_NAME":"EARTH","PERIAPSIS":"546.437","MEAN_MOTION_DOT":"0.00001962","ELEMENT_SET_NO":"999","APOAPSIS":"548.060","MEAN_MOTION_DDOT":"0.0000000000000","RA_OF_ASC_NODE":"316.3279"},{"MEAN_ELEMENT_THEORY":"SGP4","CLASSIFICATION_TYPE":"U","TLE_LINE2":"2 47865  53.0568 325.4042 0001285  86.4097 273.7039 15.06386607 81102","NORAD_CAT_ID":"47865","SITE":"AFETR","ARG_OF_PERICENTER":"86.4097","TLE_LINE1":"1 47865U 21021F   22234.62113251  .00001537  00000-0  12210-3 0  9995","SEMIMAJOR_AXIS":"6925.390","LAUNCH_DATE":"2021-03-14","OBJECT_ID":"2021-021F","REF_FRAME":"TEME","EPHEMERIS_TYPE":"0","DECAY_DATE":null,"BSTAR":"0.00012210000000","MEAN_ANOMALY":"273.7039","TIME_SYSTEM":"UTC","OBJECT_NAME":"STARLINK-2310","RCS_SIZE":"LARGE","ECCENTRICITY":"0.00012850","PERIOD":"95.593","REV_AT_EPOCH":"8110","COUNTRY_CODE":"US","INCLINATION":"53.0568","EPOCH":"2022-08-22T14:54:25.848864","PERIAPSIS":"546.365","CENTER_NAME":"EARTH","FILE":"3544179","GP_ID":"210776208","OBJECT_TYPE":"PAYLOAD","MEAN_MOTION":"15.06386607","MEAN_MOTION_DDOT":"0.0000000000000","RA_OF_ASC_NODE":"325.4042","ELEMENT_SET_NO":"999","APOAPSIS":"548.145","MEAN_MOTION_DOT":"0.00001537"},{"TIME_SYSTEM":"UTC","MEAN_ANOMALY":"294.8463","DECAY_DATE":null,"BSTAR":"0.00021958000000","EPHEMERIS_TYPE":"0","OBJECT_ID":"2021-021G","REF_FRAME":"TEME","TLE_LINE1":"1 47866U 21021G   22234.69210150  .00002990  00000-0  21958-3 0  9992","LAUNCH_DATE":"2021-03-14","SEMIMAJOR_AXIS":"6925.359","ARG_OF_PERICENTER":"65.2656","SITE":"AFETR","NORAD_CAT_ID":"47866","TLE_LINE2":"2 47866  53.0550 325.0985 0001246  65.2656 294.8463 15.06396644 81162","CLASSIFICATION_TYPE":"U","MEAN_ELEMENT_THEORY":"SGP4","APOAPSIS":"548.087","ELEMENT_SET_NO":"999","MEAN_MOTION_DOT":"0.00002990","RA_OF_ASC_NODE":"325.0985","MEAN_MOTION_DDOT":"0.0000000000000","MEAN_MOTION":"15.06396644","GP_ID":"210776960","OBJECT_TYPE":"PAYLOAD","FILE":"3544179","PERIAPSIS":"546.361","CENTER_NAME":"EARTH","EPOCH":"2022-08-22T16:36:37.569600","INCLINATION":"53.0550","REV_AT_EPOCH":"8116","COUNTRY_CODE":"US","PERIOD":"95.592","RCS_SIZE":"MEDIUM","ECCENTRICITY":"0.00012460","OBJECT_NAME":"STARLINK-2320"},{"MEAN_ELEMENT_THEORY":"SGP4","CLASSIFICATION_TYPE":"U","TLE_LINE2":"2 47867  53.0548 315.4261 0001305  79.8473 280.2663 15.06390920 81098","ARG_OF_PERICENTER":"79.8473","TLE_LINE1":"1 47867U 21021H   22234.61930825  .00000991  00000-0  85416-4 0  9992","SEMIMAJOR_AXIS":"6925.376","LAUNCH_DATE":"2021-03-14","SITE":"AFETR","NORAD_CAT_ID":"47867","BSTAR":"0.00008541600000","DECAY_DATE":null,"MEAN_ANOMALY":"280.2663","TIME_SYSTEM":"UTC","OBJECT_ID":"2021-021H","REF_FRAME":"TEME","EPHEMERIS_TYPE":"0","RCS_SIZE":"LARGE","ECCENTRICITY":"0.00013050","PERIOD":"95.593","OBJECT_NAME":"STARLINK-2321","INCLINATION":"53.0548","EPOCH":"2022-08-22T14:51:48.232800","REV_AT_EPOCH":"8109","COUNTRY_CODE":"US","GP_ID":"210776711","OBJECT_TYPE":"PAYLOAD","MEAN_MOTION":"15.06390920","PERIAPSIS":"546.338","CENTER_NAME":"EARTH","FILE":"3544179","APOAPSIS":"548.145","ELEMENT_SET_NO":"999","MEAN_MOTION_DOT":"0.00000991","RA_OF_ASC_NODE":"315.4261","MEAN_MOTION_DDOT":"0.0000000000000"},{"REF_FRAME":"TEME","OBJECT_ID":"2021-021J","EPHEMERIS_TYPE":"0","BSTAR":"0.00001669100000","DECAY_DATE":null,"MEAN_ANOMALY":"282.8343","TIME_SYSTEM":"UTC","NORAD_CAT_ID":"47868","SITE":"AFETR","ARG_OF_PERICENTER":"77.2793","LAUNCH_DATE":"2021-03-14","SEMIMAJOR_AXIS":"6925.397","TLE_LINE1":"1 47868U 21021J   22234.81190917 -.00000033  00000-0  16691-4 0  9992","TLE_LINE2":"2 47868  53.0544 264.5641 0001319  77.2793 282.8343 15.06384033 81870","CLASSIFICATION_TYPE":"U","MEAN_ELEMENT_THEORY":"SGP4","RA_OF_ASC_NODE":"264.5641","MEAN_MOTION_DDOT":"0.0000000000000","MEAN_MOTION_DOT":"-0.00000033","ELEMENT_SET_NO":"999","APOAPSIS":"548.176","PERIAPSIS":"546.349","CENTER_NAME":"EARTH","FILE":"3544179","OBJECT_TYPE":"PAYLOAD","GP_ID":"210775459","MEAN_MOTION":"15.06384033","COUNTRY_CODE":"US","REV_AT_EPOCH":"8187","INCLINATION":"53.0544","EPOCH":"2022-08-22T19:29:08.952288","OBJECT_NAME":"STARLINK-2323","ECCENTRICITY":"0.00013190","RCS_SIZE":"LARGE","PERIOD":"95.593"},{"BSTAR":"0.00022597000000","DECAY_DATE":null,"MEAN_ANOMALY":"273.9378","TIME_SYSTEM":"UTC","OBJECT_ID":"2021-021K","REF_FRAME":"TEME","EPHEMERIS_TYPE":"0","ARG_OF_PERICENTER":"86.1772","TLE_LINE1":"1 47869U 21021K   22234.48292998  .00003085  00000-0  22597-3 0  9998","LAUNCH_DATE":"2021-03-14","SEMIMAJOR_AXIS":"6925.371","SITE":"AFETR","NORAD_CAT_ID":"47869","TLE_LINE2":"2 47869  53.0542 316.0281 0001411  86.1772 273.9378 15.06392801 81221","CLASSIFICATION_TYPE":"U","MEAN_ELEMENT_THEORY":"SGP4","ELEMENT_SET_NO":"999","APOAPSIS":"548.213","MEAN_MOTION_DOT":"0.00003085","MEAN_MOTION_DDOT":"0.0000000000000","RA_OF_ASC_NODE":"316.0281","GP_ID":"210775709","OBJECT_TYPE":"PAYLOAD","MEAN_MOTION":"15.06392801","CENTER_NAME":"EARTH","PERIAPSIS":"546.258","FILE":"3544179","INCLINATION":"53.0542","EPOCH":"2022-08-22T11:35:25.150272","REV_AT_EPOCH":"8122","COUNTRY_CODE":"US","RCS_SIZE":"LARGE","ECCENTRICITY":"0.00014110","PERIOD":"95.593","OBJECT_NAME":"STARLINK-2324"},{"EPHEMERIS_TYPE":"0","REF_FRAME":"TEME","OBJECT_ID":"2021-021L","TIME_SYSTEM":"UTC","DECAY_DATE":null,"BSTAR":"0.00015681000000","MEAN_ANOMALY":"282.6600","SITE":"AFETR","NORAD_CAT_ID":"47870","LAUNCH_DATE":"2021-03-14","SEMIMAJOR_AXIS":"6925.378","TLE_LINE1":"1 47870U 21021L   22234.56724998  .00002054  00000-0  15681-3 0  9990","ARG_OF_PERICENTER":"77.4556","CLASSIFICATION_TYPE":"U","TLE_LINE2":"2 47870  53.0570 340.6492 0001498  77.4556 282.6600 15.06390372 80673","MEAN_ELEMENT_THEORY":"SGP4","RA_OF_ASC_NODE":"340.6492","MEAN_MOTION_DDOT":"0.0000000000000","MEAN_MOTION_DOT":"0.00002054","ELEMENT_SET_NO":"999","APOAPSIS":"548.280","FILE":"3544179","CENTER_NAME":"EARTH","PERIAPSIS":"546.206","MEAN_MOTION":"15.06390372","OBJECT_TYPE":"PAYLOAD","GP_ID":"210776461","COUNTRY_CODE":"US","REV_AT_EPOCH":"8067","EPOCH":"2022-08-22T13:36:50.398272","INCLINATION":"53.0570","OBJECT_NAME":"STARLINK-2326","PERIOD":"95.593","ECCENTRICITY":"0.00014980","RCS_SIZE":"MEDIUM"}];
